ELYSIUM STAR 2 & LFF    
1 43760U 18099C   24255.75675300  .00129143  00000+0  33184-2 0  9998
2 43760  97.5055 324.4513 0004635 299.9273  60.1511 15.38772397316482
